SENTINEL-6              
1 46984U 20086A   24131.83327035 -.00000056  00000+0  20882-4 0  9994
2 46984  66.0412 288.8530 0007768 270.6228  89.3897 12.80930781162047
